{"type": "FeatureCollection", "features": [ {"type": "Feature", "properties": {"norad_id": 33799, "name": "COSMOS 2251 DEB", "group": "cosmos-2251-debris", "lat": 14.454822878265835, "lon": 80.61427601808623, "alt_km": 641.6942894836438, "timestamp": "2025-12-15T11:38:37.544706+00:00", "meta": {"OBJECT_NAME": "COSMOS 2251 DEB", "OBJECT_ID": "1993-036AQ", "EPOCH": "2025-12-14T16:38:51.893088", "MEAN_MOTION": 14.79632963, "ECCENTRICITY": 0.00232056, "INCLINATION": 74.0317, "RA_OF_ASC_NODE": 77.9392, "ARG_OF_PERICENTER": 147.9135, "MEAN_ANOMALY": 333.1252, "EPHEMERIS_TYPE": 0, "CLASSIFICATION_TYPE": "U", "NORAD_CAT_ID": 33799, "ELEMENT_SET_NO": 999, "REV_AT_EPOCH": 88840, "BSTAR": 0.00097801121, "MEAN_MOTION_DOT": 7.342e-05, "MEAN_MOTION_DDOT": 0}, "tle": {"line1": "1 33799U 93036AQ  25348.69365617  .00007342  00000+0  97801-3 0  9990", "line2": "2 33799  74.0317  77.9392 0023205 147.9135 333.1252 14.79632963888401"}}, "geometry": {"type": "Point", "coordinates": [80.61427601808623, 14.454822878265835]}}, {"type": "Feature", "properties": {"norad_id": 33805, "name": "COSMOS 2251 DEB", "group": "cosmos-2251-debris", "lat": -60.439360587808544, "lon": -84.21462301695472, "alt_km": 747.0955363308585, "timestamp": "2025-12-15T11:38:37.544716+00:00", "meta": {"OBJECT_NAME": "COSMOS 2251 DEB", "OBJECT_ID": "1993-036AW", "EPOCH": "2025-12-14T21:07:17.087232", "MEAN_MOTION": 14.57860128, "ECCENTRICITY": 0.00601321, "INCLINATION": 74.0309, "RA_OF_ASC_NODE": 307.2591, "ARG_OF_PERICENTER": 135.6087, "MEAN_ANOMALY": 224.9921, "EPHEMERIS_TYPE": 0, "CLASSIFICATION_TYPE": "U", "NORAD_CAT_ID": 33805, "ELEMENT_SET_NO": 999, "REV_AT_EPOCH": 89258, "BSTAR": 0.0002548061, "MEAN_MOTION_DOT": 1.166e-05, "MEAN_MOTION_DDOT": 0}, "tle": {"line1": "1 33805U 93036AW  25348.88005888  .00001166  00000+0  25481-3 0  9993", "line2": "2 33805  74.0309 307.2591 0060132 135.6087 224.9921 14.57860128892586"}}, "geometry": {"type": "Point", "coordinates": [-84.21462301695472, -60.439360587808544]}}, {"type": "Feature", "properties": {"norad_id": 33811, "name": "COSMOS 2251 DEB", "group": "cosmos-2251-debris", "lat": -73.75386416355722, "lon": -147.44423876850587, "alt_km": 563.0449518434043, "timestamp": "2025-12-15T11:38:37.544726+00:00", "meta": {"OBJECT_NAME": "COSMOS 2251 DEB", "OBJECT_ID": "1993-036BC", "EPOCH": "2025-12-14T21:55:31.075968", "MEAN_MOTION": 15.05344722, "ECCENTRICITY": 0.00308288, "INCLINATION": 73.8377, "RA_OF_ASC_NODE": 298.1479, "ARG_OF_PERICENTER": 18.4913, "MEAN_ANOMALY": 37.0579, "EPHEMERIS_TYPE": 0, "CLASSIFICATION_TYPE": "U", "NORAD_CAT_ID": 33811, "ELEMENT_SET_NO": 999, "REV_AT_EPOCH": 90051, "BSTAR": 0.00069092726, "MEAN_MOTION_DOT": 9.972e-05, "MEAN_MOTION_DDOT": 0}, "tle": {"line1": "1 33811U 93036BC  25348.91355412  .00009972  00000+0  69093-3 0  9995", "line2": "2 33811  73.8377 298.1479 0030828  18.4913  37.0579 15.05344722900519"}}, "geometry": {"type": "Point", "coordinates": [-147.44423876850587, -73.75386416355722]}}, {"type": "Feature", "properties": {"norad_id": 33815, "name": "COSMOS 2251 DEB", "group": "cosmos-2251-debris", "lat": 64.51208040797412, "lon": -46.33305067386977, "alt_km": 503.638203090708, "timestamp": "2025-12-15T11:38:37.544736+00:00", "meta": {"OBJECT_NAME": "COSMOS 2251 DEB", "OBJECT_ID": "1993-036BG", "EPOCH": "2025-12-14T23:10:32.909088", "MEAN_MOTION": 15.18699884, "ECCENTRICITY": 0.0001527, "INCLINATION": 73.9514, "RA_OF_ASC_NODE": 171.9048, "ARG_OF_PERICENTER": 248.3603, "MEAN_ANOMALY": 262.5563, "EPHEMERIS_TYPE": 0, "CLASSIFICATION_TYPE": "U", "NORAD_CAT_ID": 33815, "ELEMENT_SET_NO": 999, "REV_AT_EPOCH": 88404, "BSTAR": 0.003941796, "MEAN_MOTION_DOT": 0.00082715, "MEAN_MOTION_DDOT": 0}, "tle": {"line1": "1 33815U 93036BG  25348.96565867  .00082715  00000+0  39418-2 0  9994", "line2": "2 33815  73.9514 171.9048 0001527 248.3603 262.5563 15.18699884884044"}}, "geometry": {"type": "Point", "coordinates": [-46.33305067386977, 64.51208040797412]}}, {"type": "Feature", "properties": {"norad_id": 33816, "name": "COSMOS 2251 DEB", "group": "cosmos-2251-debris", "lat": 55.63611768622611, "lon": 125.7361536992682, "alt_km": 834.0767609366412, "timestamp": "2025-12-15T11:38:37.544746+00:00", "meta": {"OBJECT_NAME": "COSMOS 2251 DEB", "OBJECT_ID": "1993-036BH", "EPOCH": "2025-12-14T16:14:49.109856", "MEAN_MOTION": 13.81785918, "ECCENTRICITY": 0.0264599, "INCLINATION": 73.895, "RA_OF_ASC_NODE": 102.1124, "ARG_OF_PERICENTER": 114.6616, "MEAN_ANOMALY": 248.2309, "EPHEMERIS_TYPE": 0, "CLASSIFICATION_TYPE": "U", "NORAD_CAT_ID": 33816, "ELEMENT_SET_NO": 999, "REV_AT_EPOCH": 84700, "BSTAR": 0.00050587303, "MEAN_MOTION_DOT": 6.85e-06, "MEAN_MOTION_DDOT": 0}, "tle": {"line1": "1 33816U 93036BH  25348.67695729  .00000685  00000+0  50587-3 0  9991", "line2": "2 33816  73.8950 102.1124 0264599 114.6616 248.2309 13.81785918847004"}}, "geometry": {"type": "Point", "coordinates": [125.7361536992682, 55.63611768622611]}}, {"type": "Feature", "properties": {"norad_id": 33818, "name": "COSMOS 2251 DEB", "group": "cosmos-2251-debris", "lat": -56.25257047841984, "lon": 135.26752679658816, "alt_km": 550.7753435402301, "timestamp": "2025-12-15T11:38:37.544756+00:00", "meta": {"OBJECT_NAME": "COSMOS 2251 DEB", "OBJECT_ID": "1993-036BK", "EPOCH": "2025-12-14T22:19:09.047712", "MEAN_MOTION": 15.12691193, "ECCENTRICITY": 0.00265254, "INCLINATION": 74.0761, "RA_OF_ASC_NODE": 161.7133, "ARG_OF_PERICENTER": 149.6045, "MEAN_ANOMALY": 8.3449, "EPHEMERIS_TYPE": 0, "CLASSIFICATION_TYPE": "U", "NORAD_CAT_ID": 33818, "ELEMENT_SET_NO": 999, "REV_AT_EPOCH": 89895, "BSTAR": 0.0016435612, "MEAN_MOTION_DOT": 0.00029095, "MEAN_MOTION_DDOT": 0}, "tle": {"line1": "1 33818U 93036BK  25348.92996583  .00029095  00000+0  16436-2 0  9993", "line2": "2 33818  74.0761 161.7133 0026525 149.6045   8.3449 15.12691193898956"}}, "geometry": {"type": "Point", "coordinates": [135.26752679658816, -56.25257047841984]}}, {"type": "Feature", "properties": {"norad_id": 33819, "name": "COSMOS 2251 DEB", "group": "cosmos-2251-debris", "lat": -10.354121772813002, "lon": -158.08974403848225, "alt_km": 772.1813354183623, "timestamp": "2025-12-15T11:38:37.544766+00:00", "meta": {"OBJECT_NAME": "COSMOS 2251 DEB", "OBJECT_ID": "1993-036BL", "EPOCH": "2025-12-14T22:46:50.638944", "MEAN_MOTION": 14.32232033, "ECCENTRICITY": 0.00891434, "INCLINATION": 74.1786, "RA_OF_ASC_NODE": 205.8491, "ARG_OF_PERICENTER": 66.4953, "MEAN_ANOMALY": 41.5337, "EPHEMERIS_TYPE": 0, "CLASSIFICATION_TYPE": "U", "NORAD_CAT_ID": 33819, "ELEMENT_SET_NO": 999, "REV_AT_EPOCH": 87527, "BSTAR": 0.00058566329, "MEAN_MOTION_DOT": 1.626e-05, "MEAN_MOTION_DDOT": 0}, "tle": {"line1": "1 33819U 93036BL  25348.94919721  .00001626  00000+0  58566-3 0  9996", "line2": "2 33819  74.1786 205.8491 0089143  66.4953  41.5337 14.32232033875271"}}, "geometry": {"type": "Point", "coordinates": [-158.08974403848225, -10.354121772813002]}}, {"type": "Feature", "properties": {"norad_id": 33821, "name": "COSMOS 2251 DEB", "group": "cosmos-2251-debris", "lat": -46.16883716540095, "lon": -25.610105935737753, "alt_km": 477.4157204523972, "timestamp": "2025-12-15T11:38:37.544776+00:00", "meta": {"OBJECT_NAME": "COSMOS 2251 DEB", "OBJECT_ID": "1993-036BN", "EPOCH": "2025-12-14T20:28:55.117344", "MEAN_MOTION": 15.25458881, "ECCENTRICITY": 0.00513762, "INCLINATION": 74.0288, "RA_OF_ASC_NODE": 138.3678, "ARG_OF_PERICENTER": 171.1464, "MEAN_ANOMALY": 189.0656, "EPHEMERIS_TYPE": 0, "CLASSIFICATION_TYPE": "U", "NORAD_CAT_ID": 33821, "ELEMENT_SET_NO": 999, "REV_AT_EPOCH": 75033, "BSTAR": 0.00087444969, "MEAN_MOTION_DOT": 0.00023008, "MEAN_MOTION_DDOT": 0}, "tle": {"line1": "1 33821U 93036BN  25348.85341571  .00023008  00000+0  87445-3 0  9997", "line2": "2 33821  74.0288 138.3678 0051376 171.1464 189.0656 15.25458881750330"}}, "geometry": {"type": "Point", "coordinates": [-25.610105935737753, -46.16883716540095]}}, {"type": "Feature", "properties": {"norad_id": 33822, "name": "COSMOS 2251 DEB", "group": "cosmos-2251-debris", "lat": -10.152215234173916, "lon": -174.0956724028589, "alt_km": 898.0989241164452, "timestamp": "2025-12-15T11:38:37.544786+00:00", "meta": {"OBJECT_NAME": "COSMOS 2251 DEB", "OBJECT_ID": "1993-036BP", "EPOCH": "2025-12-14T22:42:03.204288", "MEAN_MOTION": 14.13081436, "ECCENTRICITY": 0.01531413, "INCLINATION": 74.0692, "RA_OF_ASC_NODE": 189.7877, "ARG_OF_PERICENTER": 235.5925, "MEAN_ANOMALY": 250.042, "EPHEMERIS_TYPE": 0, "CLASSIFICATION_TYPE": "U", "NORAD_CAT_ID": 33822, "ELEMENT_SET_NO": 999, "REV_AT_EPOCH": 86085, "BSTAR": 0.00099554907, "MEAN_MOTION_DOT": 2.054e-05, "MEAN_MOTION_DDOT": 0}, "tle": {"line1": "1 33822U 93036BP  25348.94587042  .00002054  00000+0  99555-3 0  9996", "line2": "2 33822  74.0692 189.7877 0153141 235.5925 250.0420 14.13081436860852"}}, "geometry": {"type": "Point", "coordinates": [-174.0956724028589, -10.152215234173916]}}, {"type": "Feature", "properties": {"norad_id": 33823, "name": "COSMOS 2251 DEB", "group": "cosmos-2251-debris", "lat": 31.173790585625927, "lon": 154.64267585211664, "alt_km": 977.0623726260628, "timestamp": "2025-12-15T11:38:37.544796+00:00", "meta": {"OBJECT_NAME": "COSMOS 2251 DEB", "OBJECT_ID": "1993-036BQ", "EPOCH": "2025-12-14T20:38:05.468064", "MEAN_MOTION": 13.9895512, "ECCENTRICITY": 0.02093271, "INCLINATION": 73.809, "RA_OF_ASC_NODE": 145.6146, "ARG_OF_PERICENTER": 270.4309, "MEAN_ANOMALY": 211.942, "EPHEMERIS_TYPE": 0, "CLASSIFICATION_TYPE": "U", "NORAD_CAT_ID": 33823, "ELEMENT_SET_NO": 999, "REV_AT_EPOCH": 85639, "BSTAR": 0.00082109715, "MEAN_MOTION_DOT": 1.404e-05, "MEAN_MOTION_DDOT": 0}, "tle": {"line1": "1 33823U 93036BQ  25348.85978551  .00001404  00000+0  82110-3 0  9993", "line2": "2 33823  73.8090 145.6146 0209327 270.4309 211.9420 13.98955120856396"}}, "geometry": {"type": "Point", "coordinates": [154.64267585211664, 31.173790585625927]}}]}